{"type": "FeatureCollection", "features": [ {"type": "Feature", "properties": {"norad_id": 66535, "name": "STARLINK-35514", "group": "last-30-days", "lat": 3.4179743126468916, "lon": -126.35469420923467, "alt_km": 414.9766343172796, "timestamp": "2025-12-12T03:50:51.176638+00:00", "meta": {"OBJECT_NAME": "STARLINK-35514", "OBJECT_ID": "2025-265V", "EPOCH": "2025-12-11T14:00:01.999872", "MEAN_MOTION": 15.50576578, "ECCENTRICITY": 0.00016097, "INCLINATION": 43.0004, "RA_OF_ASC_NODE": 60.6954, "ARG_OF_PERICENTER": 280.552, "MEAN_ANOMALY": 269.9682, "EPHEMERIS_TYPE": 0, "CLASSIFICATION_TYPE": "U", "NORAD_CAT_ID": 66535, "ELEMENT_SET_NO": 999, "REV_AT_EPOCH": 480, "BSTAR": -0.0012542536, "MEAN_MOTION_DOT": -0.00073233, "MEAN_MOTION_DDOT": 0}, "tle": {"line1": "1 66535U 25265V   25345.58335648 -.00073233  00000+0 -12543-2 0  9992", "line2": "2 66535  43.0004  60.6954 0001609 280.5520 269.9682 15.50576578  4809"}}, "geometry": {"type": "Point", "coordinates": [-126.35469420923467, 3.4179743126468916]}}, {"type": "Feature", "properties": {"norad_id": 66536, "name": "STARLINK-35640", "group": "last-30-days", "lat": 2.1190119317483043, "lon": -124.96019030104581, "alt_km": 415.1964208298432, "timestamp": "2025-12-12T03:50:51.176648+00:00", "meta": {"OBJECT_NAME": "STARLINK-35640", "OBJECT_ID": "2025-265W", "EPOCH": "2025-12-11T14:00:01.999872", "MEAN_MOTION": 15.50611913, "ECCENTRICITY": 0.00012876, "INCLINATION": 43.0003, "RA_OF_ASC_NODE": 60.6907, "ARG_OF_PERICENTER": 280.4795, "MEAN_ANOMALY": 271.958, "EPHEMERIS_TYPE": 0, "CLASSIFICATION_TYPE": "U", "NORAD_CAT_ID": 66536, "ELEMENT_SET_NO": 999, "REV_AT_EPOCH": 478, "BSTAR": -0.0024829794, "MEAN_MOTION_DOT": -0.00143534, "MEAN_MOTION_DDOT": 0}, "tle": {"line1": "1 66536U 25265W   25345.58335648 -.00143534  00000+0 -24830-2 0  9997", "line2": "2 66536  43.0003  60.6907 0001287 280.4795 271.9580 15.50611913  4782"}}, "geometry": {"type": "Point", "coordinates": [-124.96019030104581, 2.1190119317483043]}}, {"type": "Feature", "properties": {"norad_id": 66537, "name": "STARLINK-35582", "group": "last-30-days", "lat": 0.8116109269677891, "lon": -123.56012811791958, "alt_km": 415.23053035530575, "timestamp": "2025-12-12T03:50:51.176658+00:00", "meta": {"OBJECT_NAME": "STARLINK-35582", "OBJECT_ID": "2025-265X", "EPOCH": "2025-12-11T14:00:01.999872", "MEAN_MOTION": 15.50593958, "ECCENTRICITY": 0.000134, "INCLINATION": 43.0006, "RA_OF_ASC_NODE": 60.6862, "ARG_OF_PERICENTER": 277.1583, "MEAN_ANOMALY": 277.1935, "EPHEMERIS_TYPE": 0, "CLASSIFICATION_TYPE": "U", "NORAD_CAT_ID": 66537, "ELEMENT_SET_NO": 999, "REV_AT_EPOCH": 480, "BSTAR": -0.0018835071, "MEAN_MOTION_DOT": -0.00109365, "MEAN_MOTION_DDOT": 0}, "tle": {"line1": "1 66537U 25265X   25345.58335648 -.00109365  00000+0 -18835-2 0  9990", "line2": "2 66537  43.0006  60.6862 0001340 277.1583 277.1935 15.50593958  4807"}}, "geometry": {"type": "Point", "coordinates": [-123.56012811791958, 0.8116109269677891]}}, {"type": "Feature", "properties": {"norad_id": 66538, "name": "STARLINK-35577", "group": "last-30-days", "lat": -0.4955666369971539, "lon": -122.16276598741175, "alt_km": 415.4699916458385, "timestamp": "2025-12-12T03:50:51.176668+00:00", "meta": {"OBJECT_NAME": "STARLINK-35577", "OBJECT_ID": "2025-265Y", "EPOCH": "2025-12-11T14:00:01.999872", "MEAN_MOTION": 15.50604622, "ECCENTRICITY": 0.00011655, "INCLINATION": 43.0004, "RA_OF_ASC_NODE": 60.6807, "ARG_OF_PERICENTER": 282.9708, "MEAN_ANOMALY": 273.2985, "EPHEMERIS_TYPE": 0, "CLASSIFICATION_TYPE": "U", "NORAD_CAT_ID": 66538, "ELEMENT_SET_NO": 999, "REV_AT_EPOCH": 480, "BSTAR": -0.0022338483, "MEAN_MOTION_DOT": -0.00129363, "MEAN_MOTION_DDOT": 0}, "tle": {"line1": "1 66538U 25265Y   25345.58335648 -.00129363  00000+0 -22338-2 0  9994", "line2": "2 66538  43.0004  60.6807 0001165 282.9708 273.2985 15.50604622  4806"}}, "geometry": {"type": "Point", "coordinates": [-122.16276598741175, -0.4955666369971539]}}, {"type": "Feature", "properties": {"norad_id": 66539, "name": "STARLINK-35697", "group": "last-30-days", "lat": -1.8139069148324651, "lon": -120.752533892115, "alt_km": 415.3507491700193, "timestamp": "2025-12-12T03:50:51.176678+00:00", "meta": {"OBJECT_NAME": "STARLINK-35697", "OBJECT_ID": "2025-265Z", "EPOCH": "2025-12-11T14:00:01.999872", "MEAN_MOTION": 15.50655857, "ECCENTRICITY": 0.00013325, "INCLINATION": 43.0005, "RA_OF_ASC_NODE": 60.6753, "ARG_OF_PERICENTER": 263.6887, "MEAN_ANOMALY": 294.4717, "EPHEMERIS_TYPE": 0, "CLASSIFICATION_TYPE": "U", "NORAD_CAT_ID": 66539, "ELEMENT_SET_NO": 999, "REV_AT_EPOCH": 480, "BSTAR": -0.0030985013, "MEAN_MOTION_DOT": -0.0017852, "MEAN_MOTION_DDOT": 0}, "tle": {"line1": "1 66539U 25265Z   25345.58335648 -.00178520  00000+0 -30985-2 0  9991", "line2": "2 66539  43.0005  60.6753 0001332 263.6887 294.4717 15.50655857  4802"}}, "geometry": {"type": "Point", "coordinates": [-120.752533892115, -1.8139069148324651]}}, {"type": "Feature", "properties": {"norad_id": 66540, "name": "STARLINK-35818", "group": "last-30-days", "lat": -3.1069697488863235, "lon": -119.36495329767838, "alt_km": 416.02231265590126, "timestamp": "2025-12-12T03:50:51.176688+00:00", "meta": {"OBJECT_NAME": "STARLINK-35818", "OBJECT_ID": "2025-265AA", "EPOCH": "2025-12-11T14:00:01.999872", "MEAN_MOTION": 15.50749671, "ECCENTRICITY": 0.00012925, "INCLINATION": 43.0003, "RA_OF_ASC_NODE": 60.671, "ARG_OF_PERICENTER": 271.2945, "MEAN_ANOMALY": 288.8132, "EPHEMERIS_TYPE": 0, "CLASSIFICATION_TYPE": "U", "NORAD_CAT_ID": 66540, "ELEMENT_SET_NO": 999, "REV_AT_EPOCH": 480, "BSTAR": -0.0065555081, "MEAN_MOTION_DOT": -0.00369563, "MEAN_MOTION_DDOT": 0}, "tle": {"line1": "1 66540U 25265AA  25345.58335648 -.00369563  00000+0 -65555-2 0  9993", "line2": "2 66540  43.0003  60.6710 0001292 271.2945 288.8132 15.50749671  4806"}}, "geometry": {"type": "Point", "coordinates": [-119.36495329767838, -3.1069697488863235]}}, {"type": "Feature", "properties": {"norad_id": 66541, "name": "STARLINK-35796", "group": "last-30-days", "lat": -4.366590502573506, "lon": -118.00920388417175, "alt_km": 415.2366709013513, "timestamp": "2025-12-12T03:50:51.176700+00:00", "meta": {"OBJECT_NAME": "STARLINK-35796", "OBJECT_ID": "2025-265AB", "EPOCH": "2025-12-11T14:00:01.999872", "MEAN_MOTION": 15.50515403, "ECCENTRICITY": 0.0001802, "INCLINATION": 43.0005, "RA_OF_ASC_NODE": 60.6661, "ARG_OF_PERICENTER": 275.4296, "MEAN_ANOMALY": 286.4306, "EPHEMERIS_TYPE": 0, "CLASSIFICATION_TYPE": "U", "NORAD_CAT_ID": 66541, "ELEMENT_SET_NO": 999, "REV_AT_EPOCH": 480, "BSTAR": 0.0018484335, "MEAN_MOTION_DOT": 0.00109377, "MEAN_MOTION_DDOT": 0}, "tle": {"line1": "1 66541U 25265AB  25345.58335648  .00109377  00000+0  18484-2 0  9996", "line2": "2 66541  43.0005  60.6661 0001802 275.4296 286.4306 15.50515403  4807"}}, "geometry": {"type": "Point", "coordinates": [-118.00920388417175, -4.366590502573506]}}, {"type": "Feature", "properties": {"norad_id": 66542, "name": "STARLINK-35833", "group": "last-30-days", "lat": -5.702385225596209, "lon": -116.56160070192513, "alt_km": 415.9113998898438, "timestamp": "2025-12-12T03:50:51.176712+00:00", "meta": {"OBJECT_NAME": "STARLINK-35833", "OBJECT_ID": "2025-265AC", "EPOCH": "2025-12-11T14:00:01.999872", "MEAN_MOTION": 15.50620304, "ECCENTRICITY": 0.00015653, "INCLINATION": 43.0004, "RA_OF_ASC_NODE": 60.6622, "ARG_OF_PERICENTER": 270.6629, "MEAN_ANOMALY": 293.2821, "EPHEMERIS_TYPE": 0, "CLASSIFICATION_TYPE": "U", "NORAD_CAT_ID": 66542, "ELEMENT_SET_NO": 999, "REV_AT_EPOCH": 480, "BSTAR": -0.0029373703, "MEAN_MOTION_DOT": -0.00169243, "MEAN_MOTION_DDOT": 0}, "tle": {"line1": "1 66542U 25265AC  25345.58335648 -.00169243  00000+0 -29374-2 0  9997", "line2": "2 66542  43.0004  60.6622 0001565 270.6629 293.2821 15.50620304  4802"}}, "geometry": {"type": "Point", "coordinates": [-116.56160070192513, -5.702385225596209]}}, {"type": "Feature", "properties": {"norad_id": 66543, "name": "STARLINK-35315", "group": "last-30-days", "lat": -7.013711074909238, "lon": -115.13285508587221, "alt_km": 416.07475102101944, "timestamp": "2025-12-12T03:50:51.176723+00:00", "meta": {"OBJECT_NAME": "STARLINK-35315", "OBJECT_ID": "2025-265AD", "EPOCH": "2025-12-11T14:00:01.999872", "MEAN_MOTION": 15.50660782, "ECCENTRICITY": 0.00013007, "INCLINATION": 43.0004, "RA_OF_ASC_NODE": 60.656, "ARG_OF_PERICENTER": 275.1004, "MEAN_ANOMALY": 290.7216, "EPHEMERIS_TYPE": 0, "CLASSIFICATION_TYPE": "U", "NORAD_CAT_ID": 66543, "ELEMENT_SET_NO": 999, "REV_AT_EPOCH": 470, "BSTAR": -0.0033109141, "MEAN_MOTION_DOT": -0.0019048, "MEAN_MOTION_DDOT": 0}, "tle": {"line1": "1 66543U 25265AD  25345.58335648 -.00190480  00000+0 -33109-2 0  9996", "line2": "2 66543  43.0004  60.6560 0001300 275.1004 290.7216 15.50660782  4701"}}, "geometry": {"type": "Point", "coordinates": [-115.13285508587221, -7.013711074909238]}}, {"type": "Feature", "properties": {"norad_id": 66544, "name": "STARLINK-35728", "group": "last-30-days", "lat": -8.299488271216159, "lon": -113.71751620849606, "alt_km": 416.11732660393227, "timestamp": "2025-12-12T03:50:51.176735+00:00", "meta": {"OBJECT_NAME": "STARLINK-35728", "OBJECT_ID": "2025-265AE", "EPOCH": "2025-12-11T14:00:01.999872", "MEAN_MOTION": 15.50604317, "ECCENTRICITY": 0.00014931, "INCLINATION": 43.0005, "RA_OF_ASC_NODE": 60.6516, "ARG_OF_PERICENTER": 275.5579, "MEAN_ANOMALY": 292.2051, "EPHEMERIS_TYPE": 0, "CLASSIFICATION_TYPE": "U", "NORAD_CAT_ID": 66544, "ELEMENT_SET_NO": 999, "REV_AT_EPOCH": 480, "BSTAR": -0.0021069345, "MEAN_MOTION_DOT": -0.00122147, "MEAN_MOTION_DDOT": 0}, "tle": {"line1": "1 66544U 25265AE  25345.58335648 -.00122147  00000+0 -21069-2 0  9994", "line2": "2 66544  43.0005  60.6516 0001493 275.5579 292.2051 15.50604317  4805"}}, "geometry": {"type": "Point", "coordinates": [-113.71751620849606, -8.299488271216159]}}]}